satname,norad_id,inclination_deg,eccentricity,mean_motion_rev_per_day,perigee_km,apogee_km,l1,l2
STARLINK-1132,45044,53.0566,0.0001294,15.06386863,546.3556759303401,548.1479665572788,1 45044U 20006A   25251.53109028  .00011797  00000+0  80984-3 0  9994,2 45044  53.0566   4.3598 0001294  91.3623 268.7514 15.06386863309284
STARLINK-1131,45047,53.0565,0.0001245,15.06402795,546.3407868501135,548.0651965080415,1 45047U 20006D   25251.63988264  .00000608  00000+0  59675-4 0  9998,2 45047  53.0565  24.4112 0001245  85.7656 274.3475 15.06402795309013
STARLINK-1134,45048,53.0475,0.0005493,15.22732898,493.8247066049644,501.37839297576375,1 45048U 20006E   25251.59079333  .00053723  00000+0  22701-2 0  9996,2 45048  53.0475   9.3546 0005493 330.8170  29.2518 15.22732898309227
STARLINK-1156,45054,53.0577,0.0001372,15.06400029,546.261311247501,548.1616268674097,1 45054U 20006L   25251.61033850 -.00000305  00000+0 -16106-5 0  9995,2 45054  53.0577  24.0085 0001372  94.8042 265.3104 15.06400029309017
STARLINK-1159,45057,53.0558,0.0001449,15.06389616,546.239895967944,548.2468712031068,1 45057U 20006P   25251.62509088  .00000606  00000+0  59590-4 0  9995,2 45057  53.0558  23.9384 0001449  85.9250 274.1904 15.06389616309021
STARLINK-1166,45060,53.0558,0.0001096,15.06408926,546.4251859652923,547.9432163725887,1 45060U 20006S   25251.63613200  .00011199  00000+0  76931-3 0  9998,2 45060  53.0558  23.8906 0001096  93.9028 266.2086 15.06408926309023
STARLINK-1169,45061,53.0561,0.0001378,15.06392441,546.2804090577147,548.1890415052021,1 45061U 20006T   25251.64351126  .00001205  00000+0  99809-4 0  9993,2 45061  53.0561  23.8576 0001378  92.8152 267.2995 15.06392441309024
STARLINK-1171,45062,53.0576,0.0001621,15.06398239,546.094355278774,548.3395550310361,1 45062U 20006U   25251.56241246  .00001289  00000+0  10542-3 0  9994,2 45062  53.0576  24.2189 0001621  95.5481 264.5693 15.06398239309017
STARLINK-1133,45064,53.0562,0.0001392,15.06391336,546.2740997621158,548.2021241932898,1 45064U 20006W   25251.57533162  .00004135  00000+0  29638-3 0  9997,2 45064  53.0562   4.1600 0001392  78.5305 281.5840 15.06391336309294
STARLINK-1150,45067,53.0448,0.0004141,15.89074131,302.11005519363425,307.6449277954889,1 45067U 20006Z   25251.58337963  .00308579  00000+0  10197-2 0  9990,2 45067  53.0448 317.6620 0004141 315.1930 158.1977 15.89074131  5894
STARLINK-1167,45071,53.057,0.000143,15.06403692,546.2099192874548,548.1905657388133,1 45071U 20006AD  25251.60112774  .00011274  00000+0  77443-3 0  9990,2 45071  53.0570   4.0489 0001430  74.3858 285.7288 15.06403692309296
STARLINK-1168,45072,53.0565,0.0001202,15.06400241,546.3783925002053,548.043246115968,1 45072U 20006AE  25251.60480697  .00011865  00000+0  81407-3 0  9994,2 45072  53.0565   4.0311 0001202 102.6085 257.5039 15.06400241309297
STARLINK-1172,45074,53.0566,0.0001332,15.06396287,546.30047982817,548.1453957155927,1 45074U 20006AG  25251.61586246 -.00001336  00000+0 -70828-4 0  9994,2 45074  53.0566   3.9824 0001332  76.7199 283.3938 15.06396287309297
STARLINK-1153,45080,53.0557,0.0001404,15.06406103,546.2205368740333,548.1651694968086,1 45080U 20006AN  25251.52741592  .00011854  00000+0  81323-3 0  9993,2 45080  53.0557   4.3802 0001404  79.6029 280.5119 15.06406103309287
STARLINK-1151,45081,53.0556,0.0001375,15.06402979,546.2501935760629,548.1546619186929,1 45081U 20006AP  25251.57901449  .00011795  00000+0  80934-3 0  9999,2 45081  53.0556   4.2200 0001375  78.2594 281.8550 15.06402979309298
STARLINK-1190,45083,53.0515,0.0006888,15.70900701,351.6828772722374,360.96026740148864,1 45083U 20006AR  25251.53633407  .00108408  00000+0  84409-3 0  9992,2 45083  53.0515 342.5742 0006888 349.5782  10.5091 15.70900701309598
STARLINK-1173,45084,53.0476,0.001033,15.77467994,330.68000147602015,344.554750016312,1 45084U 20006AS  25251.58337963  .00167389  00000+0  97127-3 0  9990,2 45084  53.0476 306.9943 0010330 323.2692 177.2934 15.77467994  5913
STARLINK-1179,45085,53.0419,0.0006499,15.87984574,303.5887896957829,312.27934486903723,1 45085U 20006AT  25251.58337963  .00294085  00000+0  10270-2 0  9998,2 45085  53.0419 298.6919 0006499 332.5523 329.8188 15.87984574  6048
STARLINK-1185,45087,53.0561,0.0001284,15.06398721,546.32626263368,548.1046931500023,1 45087U 20006AV  25251.55504379  .00002609  00000+0  19398-3 0  9994,2 45087  53.0561 344.2519 0001284  93.9909 266.1227 15.06398721309570
STARLINK-1183,45088,53.0566,9.82e-05,15.0638365,546.5815946374105,547.941742935961,1 45088U 20006AW  25251.51082801  .00010553  00000+0  72663-3 0  9993,2 45088  53.0566 344.4530 0000982  71.4327 288.6769 15.06383650309564
STARLINK-1176,45090,53.0497,0.0006085,15.7517209,340.05101742685656,348.2320303904544,1 45090U 20006AY  25251.58337963  .00167383  00000+0  10767-2 0  9995,2 45090  53.0497 304.4897 0006085 301.4912 104.9009 15.75172090  5962
STARLINK-1142,45093,53.0404,0.0006096,15.48419477,417.204143950411,425.49407741655614,1 45093U 20006BB  25251.39789685  .00064291  00000+0  11902-2 0  9995,2 45093  53.0404 296.2377 0006096  12.8415 347.2746 15.48419477310239
STARLINK-1146,45094,53.0486,0.0006987,15.88632407,301.44596780923985,310.78654330855807,1 45094U 20006BC  25251.58337963  .00328462  00000+0  11059-2 0  9991,2 45094  53.0486 299.8513 0006987 325.1002 261.4920 15.88632407  6048
STARLINK-1147,45095,53.0436,0.0009939,15.86526852,305.3795852011044,318.6782970588838,1 45095U 20006BD  25251.58337963  .00227139  00000+0  85749-3 0  9999,2 45095  53.0436 302.3902 0009939 333.7603  12.8033 15.86526852  6056
STARLINK-1152,45096,53.053,0.000429,15.2018078,502.3418486126229,508.2478331320908,1 45096U 20006BE  25251.53228608  .00018966  00000+0  87738-3 0  9996,2 45096  53.0530 332.3707 0004290  16.2547 343.8585 15.20180780309737
STARLINK-1184,45098,53.0558,0.000119,15.06389906,546.4183746073468,548.0666149271019,1 45098U 20006BG  25251.52557517  .00014220  00000+0  97187-3 0  9999,2 45098  53.0558 344.3862 0001190  73.4057 286.7063 15.06389906309563
STARLINK-1193,45100,53.0558,0.0001672,15.06392997,546.0750993402635,548.3909430753547,1 45100U 20006BJ  25251.52188471  .00005261  00000+0  37190-3 0  9995,2 45100  53.0558 344.4024 0001672  93.2424 266.8756 15.06392997309563
STARLINK-1143,45179,53.0571,0.0005183,15.31993007,466.3173755035241,473.4160161346099,1 45179U 20012B   25251.36453570  .00063375  00000+0  20174-2 0  9998,2 45179  53.0571 119.9459 0005183 109.1263 251.0299 15.31993007307710
STARLINK-1200,45181,53.0358,0.0007844,16.22807167,206.77186953088494,217.1103840962296,1 45181U 20012D   25251.84877434  .02338254  11891-4  93578-3 0  9990,2 45181  53.0358  91.6529 0007844 279.1918  80.8234 16.22807167308148
STARLINK-1201,45182,53.0372,0.0001643,15.99295171,275.27979704173777,277.46646907145987,1 45182U 20012E   25251.58337963  .00311471  51530-4  62333-3 0  9999,2 45182  53.0372  74.2526 0001643  85.8830 222.6672 15.99295171  5960
STARLINK-1202,45183,53.0551,0.0001453,15.06414147,546.1619529146174,548.174446605668,1 45183U 20012F   25251.12009633  .00001198  00000+0  99297-4 0  9993,2 45183  53.0551 146.2054 0001453  94.1007 266.0148 15.06414147307323
STARLINK-1216,45185,53.0536,9.31e-05,15.06407311,546.5444030022327,547.8338987315228,1 45185U 20012H   25251.44446323  .00006907  00000+0  48205-3 0  9996,2 45185  53.0536 144.7488 0000931  88.2476 271.8620 15.06407311307319
STARLINK-1224,45186,53.0372,0.0002653,16.01383575,268.82242748006684,272.35024008097025,1 45186U 20012J   25251.28357795  .00465859  10669-3  82411-3 0  9991,2 45186  53.0372  96.9923 0002653  84.0143 276.1189 16.01383575307968
STARLINK-1225,45187,53.0547,0.0001479,15.06432816,546.0867392736882,548.1352276271928,1 45187U 20012K   25251.13113887  .00008063  00000+0  55907-3 0  9992,2 45187  53.0547 146.1560 0001479  93.2448 266.8710 15.06432816307315
STARLINK-1228,45188,53.0335,0.0007228,16.1147191,238.02290945256027,247.5941483091101,1 45188U 20012L   25251.75687010  .00862688  44066-3  81049-3 0  9996,2 45188  53.0335  31.6926 0007228 336.8757  23.1950 16.11471910308925
STARLINK-1230,45189,53.0544,0.000117,15.06399397,546.4031400495387,548.0236720445528,1 45189U 20012M   25251.40023850  .00002355  00000+0  17691-3 0  9990,2 45189  53.0544 144.9511 0001170  84.5236 275.5886 15.06399397304585
STARLINK-1234,45190,53.0538,0.0001537,15.06420521,546.0842483361421,548.2130811494853,1 45190U 20012N   25251.28597157  .00003364  00000+0  24450-3 0  9996,2 45190  53.0538 105.4611 0001537  79.9091 280.2072 15.06420521307809
STARLINK-1237,45192,53.0447,0.0002086,16.08844216,248.63317630580605,251.39844165771228,1 45192U 20012Q   25251.52948700  .00705329  27248-3  78952-3 0  9992,2 45192  53.0447  94.3789 0002086 252.2397 107.8408 16.08844216308089
STARLINK-1240,45194,53.0392,0.000494,15.9320896,290.01391123504254,296.6053004816313,1 45194U 20012S   25251.58337963  .00340667  55772-4  94912-3 0  9991,2 45194  53.0392  96.1315 0004940  91.6955 357.4077 15.93208960  6006
STARLINK-1244,45196,53.0366,0.0002469,15.97829835,278.79698236576587,282.0849881748927,1 45196U 20012U   25251.58337963  .00328637  55285-4  71368-3 0  9995,2 45196  53.0366  95.8210 0002469 101.6273 208.1337 15.97829835  6014
STARLINK-1269,45197,53.0544,0.0001398,15.06390262,546.2732357656951,548.2095715673595,1 45197U 20012V   25251.41128727  .00006682  00000+0  46719-3 0  9999,2 45197  53.0544 144.9007 0001398  94.4282 265.6867 15.06390262307334
STARLINK-1154,45198,53.0552,0.0001415,15.06419602,546.1715529628354,548.1314096030392,1 45198U 20012W   25251.07033187  .00003087  00000+0  22593-3 0  9997,2 45198  53.0552 126.4294 0001415  91.5366 268.5786 15.06419602307532
STARLINK-1199,45201,53.0538,0.0001317,15.06405805,546.281700444536,548.1058325684335,1 45201U 20012Z   25251.34679015  .00001237  00000+0  10193-3 0  9996,2 45201  53.0538 125.1888 0001317  89.9000 270.2140 15.06405805307638
